{
    "links": {
        "self": "http://www.neowsapp.com/rest/v1/neo/3114033?api_key=iIulBulltgU6a56xZRHN4H3l9WmuAYTsLGpBGhQ2"
    },
    "id": "3114033",
    "neo_reference_id": "3114033",
    "name": "(2002 CB26)",
    "designation": "2002 CB26",
    "nasa_jpl_url": "http://ssd.jpl.nasa.gov/sbdb.cgi?sstr=3114033",
    "absolute_magnitude_h": 26.9,
    "estimated_diameter": {
        "kilometers": {
            "estimated_diameter_min": 0.0110803882,
            "estimated_diameter_max": 0.0247765013
        },
        "meters": {
            "estimated_diameter_min": 11.0803882126,
            "estimated_diameter_max": 24.7765012606
        },
        "miles": {
            "estimated_diameter_min": 0.0068850319,
            "estimated_diameter_max": 0.0153953994
        },
        "feet": {
            "estimated_diameter_min": 36.3529808636,
            "estimated_diameter_max": 81.2877363957
        }
    },
    "is_potentially_hazardous_asteroid": false,
    "close_approach_data": [
        {
            "close_approach_date": "2002-02-08",
            "close_approach_date_full": "2002-Feb-08 15:37",
            "epoch_date_close_approach": 1013182620000,
            "relative_velocity": {
                "kilometers_per_second": "23.0144452172",
                "kilometers_per_hour": "82852.0027817803",
                "miles_per_hour": "51481.0125062679"
            },
            "miss_distance": {
                "astronomical": "0.0047709579",
                "lunar": "1.8559026231",
                "kilometers": "713725.139699673",
                "miles": "443488.2369865674"
            },
            "orbiting_body": "Moon"
        },
        {
            "close_approach_date": "2002-02-08",
            "close_approach_date_full": "2002-Feb-08 19:11",
            "epoch_date_close_approach": 1013195460000,
            "relative_velocity": {
                "kilometers_per_second": "22.3636045929",
                "kilometers_per_hour": "80508.9765343255",
                "miles_per_hour": "50025.1471137869"
            },
            "miss_distance": {
                "astronomical": "0.0031862471",
                "lunar": "1.2394501219",
                "kilometers": "476655.779453677",
                "miles": "296180.1672956626"
            },
            "orbiting_body": "Earth"
        }
    ],
    "orbital_data": {
        "orbit_id": "8",
        "orbit_determination_date": "2017-04-06 09:15:27",
        "first_observation_date": "2002-02-10",
        "last_observation_date": "2002-02-14",
        "data_arc_in_days": 4,
        "observations_used": 17,
        "orbit_uncertainty": "9",
        "minimum_orbit_intersection": ".00142906",
        "jupiter_tisserand_invariant": "3.505",
        "epoch_osculation": "2452317.5",
        "eccentricity": ".7230224185930485",
        "semi_major_axis": "1.952671926751756",
        "inclination": "6.818845543174323",
        "ascending_node_longitude": "140.3590931373203",
        "orbital_period": "996.6492646381371",
        "perihelion_distance": ".5408463475529532",
        "perihelion_argument": "264.8954084938438",
        "aphelion_distance": "3.364497505950558",
        "perihelion_time": "2452268.304396602127",
        "mean_anomaly": "17.76995965543061",
        "mean_motion": ".3612103201929403",
        "equinox": "J2000",
        "orbit_class": {
            "orbit_class_type": "APO",
            "orbit_class_description": "Near-Earth asteroid orbits which cross the Earth’s orbit similar to that of 1862 Apollo",
            "orbit_class_range": "a (semi-major axis) > 1.0 AU; q (perihelion) < 1.017 AU"
        }
    },
    "is_sentry_object": false
}